NORAD_CAT_ID,OBJECT_NAME,OBJECT_TYPE,EPOCH,MEAN_MOTION,ECCENTRICITY,INCLINATION,RA_OF_ASC_NODE,ARG_OF_PERICENTER,MEAN_ANOMALY,BSTAR,MEAN_MOTION_DOT,MEAN_MOTION_DDOT,TLE_LINE0,TLE_LINE1,TLE_LINE2,SEMIMAJOR_AXIS,PERIOD,APOGEE,PERIGEE,DECAYED
49741.0,STARLINK-3244,PAYLOAD,2022-09-09 09:00:14,15.088462,0.0001519,53.2145,123.2051,58.0036,302.1104,0.00029036,4.337e-05,0.0,0 STARLINK-3244,1 49741U 21115T   22252.37516971  .00004337  00000-0  29036-3 0  9997,2 49741  53.2145 123.2051 0001519  58.0036 302.1104 15.08846200 42707,6917.861,95.437,540.7769999999998,538.6759999999998,0.0
49741.0,STARLINK-3244,PAYLOAD,2022-09-09 20:07:56,15.08837171,0.0001354,53.2145,121.1231,56.2075,303.9046,0.00019205,2.77e-05,0.0,0 STARLINK-3244,1 49741U 21115T   22252.83885000  .00002770  00000-0  19205-3 0  9996,2 49741  53.2145 121.1231 0001354  56.2075 303.9046 15.08837171 42772,6917.889,95.438,540.691,538.817,0.0
49741.0,STARLINK-3244,PAYLOAD,2022-09-10 02:29:29,15.08835148,0.000147,53.2148,119.9341,56.2016,303.9116,-2.4016e-05,-6.7e-06,0.0,0 STARLINK-3244,1 49741U 21115T   22253.10381395 -.00000670  00000-0 -24016-4 0  9991,2 49741  53.2148 119.9341 0001470  56.2016 303.9116 15.08835148 43924,6917.895,95.438,540.7769999999998,538.743,0.0
49741.0,STARLINK-3244,PAYLOAD,2022-09-10 19:58:44,15.08832921,0.0001462,53.2147,116.6621,54.2328,305.88,-3.1888000000000004e-05,-7.95e-06,0.0,0 STARLINK-3244,1 49741U 21115T   22253.83246092 -.00000795  00000-0 -31888-4 0  9998,2 49741  53.2147 116.6621 0001462  54.2328 305.8800 15.08832921 42929,6917.901999999999,95.438,540.778,538.756,0.0
49741.0,STARLINK-3244,PAYLOAD,2022-09-11 00:44:54,15.08834306,0.0001467,53.2148,115.77,56.1025,304.0107,4.1851e-06,-2.21e-06,0.0,0 STARLINK-3244,1 49741U 21115T   22254.03118118 -.00000221  00000-0  41851-5 0  9993,2 49741  53.2148 115.7700 0001467  56.1025 304.0107 15.08834306 42951,6917.898,95.438,540.778,538.748,0.0
49741.0,STARLINK-3244,PAYLOAD,2022-09-11 19:49:31,15.08845461,0.0001416,53.2147,112.2014,53.8079,306.3044,0.00029034,4.337e-05,0.0,0 STARLINK-3244,1 49741U 21115T   22254.82605806  .00004337  00000-0  29034-3 0  9993,2 49741  53.2147 112.2014 0001416  53.8079 306.3044 15.08845461 44183,6917.864000000001,95.437,540.7080000000002,538.749,0.0
49741.0,STARLINK-3244,PAYLOAD,2022-09-11 21:24:54,15.08847508,0.0001423,53.2146,111.904,53.8211,306.2913,0.00032765,4.931e-05,0.0,0 STARLINK-3244,1 49741U 21115T   22254.89229725  .00004931  00000-0  32765-3 0  9997,2 49741  53.2146 111.9040 0001423  53.8211 306.2913 15.08847508 43089,6917.857,95.437,540.707,538.738,0.0
49741.0,STARLINK-3244,PAYLOAD,2022-09-12 00:35:40,15.08851639,0.0001448,53.2145,111.3093,53.1969,306.9155,0.00044875,6.863e-05,0.0,0 STARLINK-3244,1 49741U 21115T   22255.02477730  .00006863  00000-0  44875-3 0  9995,2 49741  53.2145 111.3093 0001448  53.1969 306.9155 15.08851639 43108,6917.845,95.437,540.712,538.7080000000002,0.0
49741.0,STARLINK-3244,PAYLOAD,2022-09-12 14:54:09,15.088459299999998,0.000146,53.2147,108.6327,54.2563,305.8564,0.00024383,3.595e-05,0.0,0 STARLINK-3244,1 49741U 21115T   22255.62093863  .00003595  00000-0  24383-3 0  9993,2 49741  53.2147 108.6327 0001460  54.2563 305.8564 15.08845930 44307,6917.861999999999,95.437,540.737,538.717,0.0
49741.0,STARLINK-3244,PAYLOAD,2022-09-12 21:15:41,15.08841291,0.0001474,53.2147,107.4433,55.0064,305.1066,7.855899999999999e-05,9.63e-06,0.0,0 STARLINK-3244,1 49741U 21115T   22255.88589929  .00000963  00000-0  78559-4 0  9995,2 49741  53.2147 107.4433 0001474  55.0064 305.1066 15.08841291 43239,6917.876,95.437,540.761,538.722,0.0
49741.0,STARLINK-3244,PAYLOAD,2022-09-13 06:48:00,15.08841775,0.0001495,53.2149,105.6591,54.1959,305.9172,7.3767e-05,8.86e-06,0.0,0 STARLINK-3244,1 49741U 21115T   22256.28333877  .00000886  00000-0  73767-4 0  9999,2 49741  53.2149 105.6591 0001495  54.1959 305.9172 15.08841775 43291,6917.875,95.437,540.774,538.706,0.0
49741.0,STARLINK-3244,PAYLOAD,2022-09-13 14:44:55,15.08847407,0.0001493,53.2148,104.1721,54.7038,305.4094,5.0215e-05,5.11e-06,0.0,0 STARLINK-3244,1 49741U 21115T   22256.61453472  .00000511  00000-0  50215-4 0  9998,2 49741  53.2148 104.1721 0001493  54.7038 305.4094 15.08847407 43343,6917.858,95.437,540.756,538.69,0.0
49741.0,STARLINK-3244,PAYLOAD,2022-09-13 22:41:51,15.08842521,0.0001458,53.2147,102.685,55.5707,304.5422,-4.4401e-06,-3.59e-06,0.0,0 STARLINK-3244,1 49741U 21115T   22256.94573673 -.00000359  00000-0 -44401-5 0  9993,2 49741  53.2147 102.6850 0001458  55.5707 304.5422 15.08842521 44507,6917.873000000001,95.437,540.746,538.729,0.0
49741.0,STARLINK-3244,PAYLOAD,2022-09-14 13:00:20,15.08834642,0.0001476999999999,53.2155,100.0089,52.5941,307.5186,-3.4546e-05,-8.38e-06,0.0,0 STARLINK-3244,1 49741U 21115T   22257.54190161 -.00000838  00000-0 -34546-4 0  9997,2 49741  53.2155 100.0089 0001477  52.5941 307.5186 15.08834642 43481,6917.897,95.438,540.784,538.74,0.0
49741.0,STARLINK-3244,PAYLOAD,2022-09-14 14:35:43,15.08832389,0.0001463,53.2165,99.7115,50.8313,309.2809,5.779800000000001e-05,6.32e-06,0.0,0 STARLINK-3244,1 49741U 21115T   22257.60814654  .00000632  00000-0  57798-4 0  9998,2 49741  53.2165  99.7115 0001463  50.8313 309.2809 15.08832389 43493,6917.904,95.438,540.781,538.757,0.0
49741.0,STARLINK-3244,PAYLOAD,2022-09-15 12:51:08,15.08835343,0.0001559,53.2159,95.5477,53.9933,306.1203,2.6178e-05,1.29e-06,0.0,0 STARLINK-3244,1 49741U 21115T   22258.53550984  .00000129  00000-0  26178-4 0  9993,2 49741  53.2159  95.5477 0001559  53.9933 306.1203 15.08835343 43632,6917.895,95.438,540.8380000000002,538.681,0.0
49741.0,STARLINK-3244,PAYLOAD,2022-09-15 19:12:40,15.08840558,0.000164,53.2156,94.3586,60.3945,299.7211,0.00013599,1.877e-05,0.0,0 STARLINK-3244,1 49741U 21115T   22258.80046406  .00001877  00000-0  13599-3 0  9995,2 49741  53.2156  94.3586 0001640  60.3945 299.7211 15.08840558 43677,6917.879,95.438,540.878,538.609,0.0
49741.0,STARLINK-3244,PAYLOAD,2022-09-15 20:48:03,15.08842258,0.0001674,53.2161,94.0613,62.0725,298.0437,0.00015041,2.107e-05,0.0,0 STARLINK-3244,1 49741U 21115T   22258.86670301  .00002107  00000-0  15041-3 0  9999,2 49741  53.2161  94.0613 0001674  62.0725 298.0437 15.08842258 44798,6917.873000000001,95.437,540.8969999999998,538.58,0.0
49741.0,STARLINK-3244,PAYLOAD,2022-09-16 12:41:54,15.08844984,0.0001740999999999,53.2163,91.0875,64.6445,295.4727,0.00023092,3.389e-05,0.0,0 STARLINK-3244,1 49741U 21115T   22259.52910004  .00003389  00000-0  23092-3 0  9998,2 49741  53.2163  91.0875 0001741  64.6445 295.4727 15.08844984 43788,6917.865,95.437,540.935,538.526,0.0
49741.0,STARLINK-3244,PAYLOAD,2022-09-16 19:03:27,15.08837037,0.0001599,53.2161,89.898,62.6868,297.4287,0.00015193,2.131e-05,0.0,0 STARLINK-3244,1 49741U 21115T   22259.79406757  .00002131  00000-0  15193-3 0  9999,2 49741  53.2161  89.8980 0001599  62.6868 297.4287 15.08837037 43825,6917.889,95.438,540.861,538.648,0.0
49741.0,STARLINK-3244,PAYLOAD,2022-09-17 06:11:08,15.08847497,0.0001597,53.2159,87.8151,65.0068,295.1089,8.2049e-05,1.018e-05,0.0,0 STARLINK-3244,1 49741U 21115T   22260.25774230  .00001018  00000-0  82049-4 0  9994,2 49741  53.2159  87.8151 0001597  65.0068 295.1089 15.08847497 43890,6917.857,95.437,540.827,538.618,0.0
49741.0,STARLINK-3244,PAYLOAD,2022-09-17 18:54:14,15.08836206,0.0001648,53.2161,85.4371,64.3317,295.7846,-2.3205e-05,-6.57e-06,0.0,0 STARLINK-3244,1 49741U 21115T   22260.78767112 -.00000657  00000-0 -23205-4 0  9992,2 49741  53.2161  85.4371 0001648  64.3317 295.7846 15.08836206 45083,6917.892,95.438,540.8969999999998,538.617,0.0
49741.0,STARLINK-3244,PAYLOAD,2022-09-18 12:23:28,15.08851455,0.0001648,53.2162,82.1659,61.2658,298.85,-7.707e-05,-1.515e-05,0.0,0 STARLINK-3244,1 49741U 21115T   22261.51630170 -.00001515  00000-0 -77070-4 0  9990,2 49741  53.2162  82.1659 0001648  61.2658 298.8500 15.08851455 44084,6917.845,95.437,540.85,538.57,0.0
49741.0,STARLINK-3244,PAYLOAD,2022-09-18 20:20:24,15.08842544,0.0001638,53.2162,80.6796,61.2616,298.8540000000001,0.00010527,1.388e-05,0.0,0 STARLINK-3244,1 49741U 21115T   22261.84750242  .00001388  00000-0  10527-3 0  9998,2 49741  53.2162  80.6796 0001638  61.2616 298.8540 15.08842544 44131,6917.873000000001,95.437,540.871,538.604,0.0
49741.0,STARLINK-3244,PAYLOAD,2022-09-19 20:11:11,15.08837048,0.000165,53.2161,76.2191,56.9801,303.1349,9.7698e-05,1.267e-05,0.0,0 STARLINK-3244,1 49741U 21115T   22262.84110599  .00001267  00000-0  97698-4 0  9995,2 49741  53.2161  76.2191 0001650  56.9801 303.1349 15.08837048 44287,6917.889,95.438,540.896,538.613,0.0
49741.0,STARLINK-3244,PAYLOAD,2022-09-20 12:05:02,15.08843311,0.0001648,53.2161,73.2451,59.4625,300.653,9.0654e-05,1.155e-05,0.0,0 STARLINK-3244,1 49741U 21115T   22263.50350195  .00001155  00000-0  90654-4 0  9998,2 49741  53.2161  73.2451 0001648  59.4625 300.6530 15.08843311 44387,6917.87,95.437,540.875,538.595,0.0
49741.0,STARLINK-3244,PAYLOAD,2022-09-20 20:01:58,15.0884063,0.0001068,53.2154,71.7579,54.2454,305.8638,1.7905e-05,-3e-08,0.0,0 STARLINK-3244,1 49741U 21115T   22263.83470405 -.00000003  00000-0  17905-4 0  9991,2 49741  53.2154  71.7579 0001068  54.2454 305.8638 15.08840630 44435,6917.878000000002,95.438,540.482,539.005,0.0
49741.0,STARLINK-3244,PAYLOAD,2022-09-21 19:52:46,15.08832209,0.0001223,53.2169,67.2967,59.2995,300.8117,-1.8649e-05,-5.85e-06,0.0,0 STARLINK-3244,1 49741U 21115T   22264.82831329 -.00000585  00000-0 -18649-4 0  9999,2 49741  53.2169  67.2967 0001223  59.2995 300.8117 15.08832209 45699,6917.904,95.438,540.615,538.923,0.0
49741.0,STARLINK-3244,PAYLOAD,2022-09-22 13:22:01,15.0883083,0.0001359,53.217,64.0256,57.6278,302.4846,3.2173000000000005e-05,2.24e-06,0.0,0 STARLINK-3244,1 49741U 21115T   22265.55695676  .00000224  00000-0  32173-4 0  9999,2 49741  53.2170  64.0256 0001359  57.6278 302.4846 15.08830830 44697,6917.908,95.438,540.714,538.8330000000002,0.0
